ORBCOMM FM103           
1 40091U 14040F   24247.54400796  .00002591  00000+0  60777-3 0  9993
2 40091  47.0046 290.4693 0001601   8.4396 351.6516 14.56985499522284
ORBCOMM FM114           
1 41179U 15081A   24247.57332469  .00003323  00000+0  76838-3 0  9990
2 41179  47.0011 199.5333 0001257  92.4745 267.6284 14.57024707462651
ORBCOMM FM119           
1 41180U 15081B   24247.34338857  .00002741  00000+0  64117-3 0  9994
2 41180  46.9996 109.8488 0001480 195.3165 164.7675 14.56963247463871
ORBCOMM FM105           
1 41181U 15081C   24247.54264078  .00001442  00000+0  45818-3 0  9994
2 41181  47.0016  86.5095 0001390 128.6409 231.4595 14.44596952459298
ORBCOMM FM110           
1 41182U 15081D   24247.54968954  .00003691  00000+0  84822-3 0  9995
2 41182  47.0000 199.0334 0002441 295.9907  64.0727 14.57082402462528
ORBCOMM FM118           
1 41183U 15081E   24247.59626397  .00003378  00000+0  77992-3 0  9995
2 41183  47.0025 199.1510 0002724 291.2107  68.8487 14.57058620462630
ORBCOMM FM112           
1 41184U 15081F   24247.32047513  .00003318  00000+0  76807-3 0  9992
2 41184  46.9976 109.1545 0001655 163.7475 196.3463 14.56969527463814
ORBCOMM FM113           
1 41185U 15081G   24247.43470002  .00003585  00000+0  82669-3 0  9997
2 41185  46.9995 108.8998 0001475 184.2093 175.8780 14.56977510463813
